{"type": "FeatureCollection", "features": [ {"type": "Feature", "properties": {"norad_id": 38779, "name": "GSAT-10 (GAGAN/PRN 128)", "group": "gnss", "lat": 0.09172207685119124, "lon": 24.348198264692027, "alt_km": 35788.939517228064, "timestamp": "2025-12-12T14:39:18.184965+00:00", "meta": {"OBJECT_NAME": "GSAT-10 (GAGAN/PRN 128)", "OBJECT_ID": "2012-051B", "EPOCH": "2025-12-12T03:36:13.806720", "MEAN_MOTION": 1.00273129, "ECCENTRICITY": 0.00024849, "INCLINATION": 0.0908, "RA_OF_ASC_NODE": 266.2921, "ARG_OF_PERICENTER": 226.2243, "MEAN_ANOMALY": 85.6406, "EPHEMERIS_TYPE": 0, "CLASSIFICATION_TYPE": "U", "NORAD_CAT_ID": 38779, "ELEMENT_SET_NO": 999, "REV_AT_EPOCH": 4822, "BSTAR": 0, "MEAN_MOTION_DOT": -1.56e-06, "MEAN_MOTION_DDOT": 0}, "tle": {"line1": "1 38779U 12051B   25346.15015980 -.00000156  00000+0  00000+0 0  9993", "line2": "2 38779   0.0908 266.2921 0002484 226.2243  85.6406  1.00273129 48220"}}, "geometry": {"type": "Point", "coordinates": [24.348198264692027, 0.09172207685119124]}}, {"type": "Feature", "properties": {"norad_id": 38833, "name": "GPS BIIF-3  (PRN 24)", "group": "gnss", "lat": -7.87596521574558, "lon": -22.89699785819738, "alt_km": 20450.57091910281, "timestamp": "2025-12-12T14:39:18.184976+00:00", "meta": {"OBJECT_NAME": "GPS BIIF-3  (PRN 24)", "OBJECT_ID": "2012-053A", "EPOCH": "2025-12-09T20:38:00.572640", "MEAN_MOTION": 2.00564945, "ECCENTRICITY": 0.0175755, "INCLINATION": 53.5569, "RA_OF_ASC_NODE": 151.3565, "ARG_OF_PERICENTER": 63.953, "MEAN_ANOMALY": 297.8432, "EPHEMERIS_TYPE": 0, "CLASSIFICATION_TYPE": "U", "NORAD_CAT_ID": 38833, "ELEMENT_SET_NO": 999, "REV_AT_EPOCH": 9564, "BSTAR": 0, "MEAN_MOTION_DOT": 6.8e-07, "MEAN_MOTION_DDOT": 0}, "tle": {"line1": "1 38833U 12053A   25343.85972885  .00000068  00000+0  00000+0 0  9997", "line2": "2 38833  53.5569 151.3565 0175755  63.9530 297.8432  2.00564945 95646"}}, "geometry": {"type": "Point", "coordinates": [-22.89699785819738, -7.87596521574558]}}, {"type": "Feature", "properties": {"norad_id": 38857, "name": "GSAT0103 (GALILEO-FM3)", "group": "gnss", "lat": 18.650245293627695, "lon": -86.65295052937562, "alt_km": 23222.876076504133, "timestamp": "2025-12-12T14:39:18.184986+00:00", "meta": {"OBJECT_NAME": "GSAT0103 (GALILEO-FM3)", "OBJECT_ID": "2012-055A", "EPOCH": "2025-12-10T14:16:18.944544", "MEAN_MOTION": 1.70473311, "ECCENTRICITY": 0.00025926, "INCLINATION": 55.6913, "RA_OF_ASC_NODE": 106.7254, "ARG_OF_PERICENTER": 268.6178, "MEAN_ANOMALY": 91.322, "EPHEMERIS_TYPE": 0, "CLASSIFICATION_TYPE": "U", "NORAD_CAT_ID": 38857, "ELEMENT_SET_NO": 999, "REV_AT_EPOCH": 8179, "BSTAR": 0, "MEAN_MOTION_DOT": 1.1e-07, "MEAN_MOTION_DDOT": 0}, "tle": {"line1": "1 38857U 12055A   25344.59466371  .00000011  00000+0  00000+0 0  9993", "line2": "2 38857  55.6913 106.7254 0002592 268.6178  91.3220  1.70473311 81792"}}, "geometry": {"type": "Point", "coordinates": [-86.65295052937562, 18.650245293627695]}}, {"type": "Feature", "properties": {"norad_id": 38953, "name": "BEIDOU-2 G6 (C02)", "group": "gnss", "lat": -3.0157819814586952, "lon": 25.48449222767569, "alt_km": 35756.60912786002, "timestamp": "2025-12-12T14:39:18.184998+00:00", "meta": {"OBJECT_NAME": "BEIDOU-2 G6 (C02)", "OBJECT_ID": "2012-059A", "EPOCH": "2025-12-11T20:45:33.415776", "MEAN_MOTION": 1.00269666, "ECCENTRICITY": 0.0007739, "INCLINATION": 3.9473, "RA_OF_ASC_NODE": 75.5133, "ARG_OF_PERICENTER": 289.4412, "MEAN_ANOMALY": 111.2689, "EPHEMERIS_TYPE": 0, "CLASSIFICATION_TYPE": "U", "NORAD_CAT_ID": 38953, "ELEMENT_SET_NO": 999, "REV_AT_EPOCH": 4803, "BSTAR": 0, "MEAN_MOTION_DOT": -1.67e-06, "MEAN_MOTION_DDOT": 0}, "tle": {"line1": "1 38953U 12059A   25345.86497009 -.00000167  00000+0  00000+0 0  9990", "line2": "2 38953   3.9473  75.5133 0007739 289.4412 111.2689  1.00269666 48035"}}, "geometry": {"type": "Point", "coordinates": [25.48449222767569, -3.0157819814586952]}}, {"type": "Feature", "properties": {"norad_id": 38977, "name": "LUCH 5B (SDCM/PRN 125)", "group": "gnss", "lat": -8.09189886010604, "lon": -75.33115710809297, "alt_km": 35763.802075237356, "timestamp": "2025-12-12T14:39:18.185008+00:00", "meta": {"OBJECT_NAME": "LUCH 5B (SDCM/PRN 125)", "OBJECT_ID": "2012-061A", "EPOCH": "2025-12-11T23:42:18.523296", "MEAN_MOTION": 1.00272282, "ECCENTRICITY": 0.0007194, "INCLINATION": 10.0801, "RA_OF_ASC_NODE": 51.7145, "ARG_OF_PERICENTER": 192.9773, "MEAN_ANOMALY": 175.4845, "EPHEMERIS_TYPE": 0, "CLASSIFICATION_TYPE": "U", "NORAD_CAT_ID": 38977, "ELEMENT_SET_NO": 999, "REV_AT_EPOCH": 4773, "BSTAR": 0, "MEAN_MOTION_DOT": -1.33e-06, "MEAN_MOTION_DDOT": 0}, "tle": {"line1": "1 38977U 12061A   25345.98771439 -.00000133  00000+0  00000+0 0  9997", "line2": "2 38977  10.0801  51.7145 0007194 192.9773 175.4845  1.00272282 47737"}}, "geometry": {"type": "Point", "coordinates": [-75.33115710809297, -8.09189886010604]}}, {"type": "Feature", "properties": {"norad_id": 39155, "name": "COSMOS 2485 (747)", "group": "gnss", "lat": -2.51695944246944, "lon": 78.71890997442911, "alt_km": 19169.32854176716, "timestamp": "2025-12-12T14:39:18.185020+00:00", "meta": {"OBJECT_NAME": "COSMOS 2485 (747)", "OBJECT_ID": "2013-019A", "EPOCH": "2025-12-10T17:41:35.437344", "MEAN_MOTION": 2.13102878, "ECCENTRICITY": 0.00245732, "INCLINATION": 65.3124, "RA_OF_ASC_NODE": 79.9346, "ARG_OF_PERICENTER": 229.2052, "MEAN_ANOMALY": 130.5984, "EPHEMERIS_TYPE": 0, "CLASSIFICATION_TYPE": "U", "NORAD_CAT_ID": 39155, "ELEMENT_SET_NO": 999, "REV_AT_EPOCH": 9826, "BSTAR": 0, "MEAN_MOTION_DOT": -2.2e-07, "MEAN_MOTION_DDOT": 0}, "tle": {"line1": "1 39155U 13019A   25344.73721571 -.00000022  00000+0  00000+0 0  9991", "line2": "2 39155  65.3124  79.9346 0024573 229.2052 130.5984  2.13102878 98264"}}, "geometry": {"type": "Point", "coordinates": [78.71890997442911, -2.51695944246944]}}, {"type": "Feature", "properties": {"norad_id": 39166, "name": "GPS BIIF-4  (PRN 27)", "group": "gnss", "lat": -52.201640206257004, "lon": -149.49286861071496, "alt_km": 20389.73124422134, "timestamp": "2025-12-12T14:39:18.185031+00:00", "meta": {"OBJECT_NAME": "GPS BIIF-4  (PRN 27)", "OBJECT_ID": "2013-023A", "EPOCH": "2025-12-11T05:15:59.310144", "MEAN_MOTION": 2.0056514, "ECCENTRICITY": 0.01377988, "INCLINATION": 54.6533, "RA_OF_ASC_NODE": 276.63, "ARG_OF_PERICENTER": 48.5969, "MEAN_ANOMALY": 312.5932, "EPHEMERIS_TYPE": 0, "CLASSIFICATION_TYPE": "U", "NORAD_CAT_ID": 39166, "ELEMENT_SET_NO": 999, "REV_AT_EPOCH": 9211, "BSTAR": 0, "MEAN_MOTION_DOT": -6.7e-07, "MEAN_MOTION_DDOT": 0}, "tle": {"line1": "1 39166U 13023A   25345.21943646 -.00000067  00000+0  00000+0 0  9990", "line2": "2 39166  54.6533 276.6300 0137798  48.5969 312.5932  2.00565140 92114"}}, "geometry": {"type": "Point", "coordinates": [-149.49286861071496, -52.201640206257004]}}, {"type": "Feature", "properties": {"norad_id": 39199, "name": "IRNSS-1A", "group": "gnss", "lat": -32.79976156104263, "lon": 1.1631543870970988, "alt_km": 35810.70444154118, "timestamp": "2025-12-12T14:39:18.185042+00:00", "meta": {"OBJECT_NAME": "IRNSS-1A", "OBJECT_ID": "2013-034A", "EPOCH": "2025-12-02T19:49:26.431104", "MEAN_MOTION": 1.00279053, "ECCENTRICITY": 0.00216608, "INCLINATION": 35.2852, "RA_OF_ASC_NODE": 66.6964, "ARG_OF_PERICENTER": 185.4059, "MEAN_ANOMALY": 172.3398, "EPHEMERIS_TYPE": 0, "CLASSIFICATION_TYPE": "U", "NORAD_CAT_ID": 39199, "ELEMENT_SET_NO": 999, "REV_AT_EPOCH": 4539, "BSTAR": 0, "MEAN_MOTION_DOT": 6.5e-07, "MEAN_MOTION_DDOT": 0}, "tle": {"line1": "1 39199U 13034A   25336.82600036  .00000065  00000+0  00000+0 0  9995", "line2": "2 39199  35.2852  66.6964 0021660 185.4059 172.3398  1.00279053 45393"}}, "geometry": {"type": "Point", "coordinates": [1.1631543870970988, -32.79976156104263]}}, {"type": "Feature", "properties": {"norad_id": 39533, "name": "GPS BIIF-5  (PRN 30)", "group": "gnss", "lat": -49.558904776514574, "lon": 97.06277586073156, "alt_km": 20088.27269183005, "timestamp": "2025-12-12T14:39:18.185053+00:00", "meta": {"OBJECT_NAME": "GPS BIIF-5  (PRN 30)", "OBJECT_ID": "2014-008A", "EPOCH": "2025-12-11T17:05:22.085952", "MEAN_MOTION": 2.00574377, "ECCENTRICITY": 0.0079189, "INCLINATION": 53.6311, "RA_OF_ASC_NODE": 156.9665, "ARG_OF_PERICENTER": 226.4865, "MEAN_ANOMALY": 132.8633, "EPHEMERIS_TYPE": 0, "CLASSIFICATION_TYPE": "U", "NORAD_CAT_ID": 39533, "ELEMENT_SET_NO": 999, "REV_AT_EPOCH": 8592, "BSTAR": 0, "MEAN_MOTION_DOT": 8.7e-07, "MEAN_MOTION_DDOT": 0}, "tle": {"line1": "1 39533U 14008A   25345.71206118  .00000087  00000+0  00000+0 0  9994", "line2": "2 39533  53.6311 156.9665 0079189 226.4865 132.8633  2.00574377 85924"}}, "geometry": {"type": "Point", "coordinates": [97.06277586073156, -49.558904776514574]}}, {"type": "Feature", "properties": {"norad_id": 39617, "name": "ASTRA 5B (EGNOS/PRN 123)", "group": "gnss", "lat": -0.06034553380428318, "lon": -35.09740343787056, "alt_km": 35776.53424897338, "timestamp": "2025-12-12T14:39:18.185063+00:00", "meta": {"OBJECT_NAME": "ASTRA 5B (EGNOS/PRN 123)", "OBJECT_ID": "2014-011B", "EPOCH": "2025-12-12T05:01:52.208256", "MEAN_MOTION": 1.00272166, "ECCENTRICITY": 0.00043876, "INCLINATION": 0.0602, "RA_OF_ASC_NODE": 37.2223, "ARG_OF_PERICENTER": 228.1315, "MEAN_ANOMALY": 274.757, "EPHEMERIS_TYPE": 0, "CLASSIFICATION_TYPE": "U", "NORAD_CAT_ID": 39617, "ELEMENT_SET_NO": 999, "REV_AT_EPOCH": 4279, "BSTAR": 0, "MEAN_MOTION_DOT": 1.47e-06, "MEAN_MOTION_DDOT": 0}, "tle": {"line1": "1 39617U 14011B   25346.20963204  .00000147  00000+0  00000+0 0  9999", "line2": "2 39617   0.0602  37.2223 0004387 228.1315 274.7570  1.00272166 42798"}}, "geometry": {"type": "Point", "coordinates": [-35.09740343787056, -0.06034553380428318]}}]}